{"type": "FeatureCollection", "features": [ {"type": "Feature", "properties": {"norad_id": 34610, "name": "COSMOS 2251 DEB", "group": "cosmos-2251-debris", "lat": -71.80631904978036, "lon": -163.13099834789588, "alt_km": 916.2039770684805, "timestamp": "2025-12-15T10:55:21.539476+00:00", "meta": {"OBJECT_NAME": "COSMOS 2251 DEB", "OBJECT_ID": "1993-036WF", "EPOCH": "2025-12-14T04:35:22.335072", "MEAN_MOTION": 14.07070245, "ECCENTRICITY": 0.01802619, "INCLINATION": 74.0181, "RA_OF_ASC_NODE": 259.7735, "ARG_OF_PERICENTER": 30.0652, "MEAN_ANOMALY": 331.0686, "EPHEMERIS_TYPE": 0, "CLASSIFICATION_TYPE": "U", "NORAD_CAT_ID": 34610, "ELEMENT_SET_NO": 999, "REV_AT_EPOCH": 85580, "BSTAR": 0.0020281044, "MEAN_MOTION_DOT": 3.908e-05, "MEAN_MOTION_DDOT": 0}, "tle": {"line1": "1 34610U 93036WF  25348.19123073  .00003908  00000+0  20281-2 0  9997", "line2": "2 34610  74.0181 259.7735 0180261  30.0652 331.0686 14.07070245855802"}}, "geometry": {"type": "Point", "coordinates": [-163.13099834789588, -71.80631904978036]}}, {"type": "Feature", "properties": {"norad_id": 34611, "name": "COSMOS 2251 DEB", "group": "cosmos-2251-debris", "lat": -43.75918313497094, "lon": -68.39777343815965, "alt_km": 668.6063760238549, "timestamp": "2025-12-15T10:55:21.539487+00:00", "meta": {"OBJECT_NAME": "COSMOS 2251 DEB", "OBJECT_ID": "1993-036WG", "EPOCH": "2025-12-14T18:17:09.957984", "MEAN_MOTION": 14.69556561, "ECCENTRICITY": 0.00224347, "INCLINATION": 74.0527, "RA_OF_ASC_NODE": 97.0518, "ARG_OF_PERICENTER": 137.9492, "MEAN_ANOMALY": 21.9635, "EPHEMERIS_TYPE": 0, "CLASSIFICATION_TYPE": "U", "NORAD_CAT_ID": 34611, "ELEMENT_SET_NO": 999, "REV_AT_EPOCH": 88420, "BSTAR": 0.0013350985, "MEAN_MOTION_DOT": 7.935e-05, "MEAN_MOTION_DDOT": 0}, "tle": {"line1": "1 34611U 93036WG  25348.76192081  .00007935  00000+0  13351-2 0  9990", "line2": "2 34611  74.0527  97.0518 0022434 137.9492  21.9635 14.69556561884208"}}, "geometry": {"type": "Point", "coordinates": [-68.39777343815965, -43.75918313497094]}}, {"type": "Feature", "properties": {"norad_id": 34613, "name": "COSMOS 2251 DEB", "group": "cosmos-2251-debris", "lat": -66.36784837069096, "lon": 134.71944589435597, "alt_km": 877.1403406925883, "timestamp": "2025-12-15T10:55:21.539497+00:00", "meta": {"OBJECT_NAME": "COSMOS 2251 DEB", "OBJECT_ID": "1993-036WJ", "EPOCH": "2025-12-14T20:33:12.653280", "MEAN_MOTION": 14.26448006, "ECCENTRICITY": 0.01102546, "INCLINATION": 73.9633, "RA_OF_ASC_NODE": 274.7091, "ARG_OF_PERICENTER": 105.9603, "MEAN_ANOMALY": 312.4299, "EPHEMERIS_TYPE": 0, "CLASSIFICATION_TYPE": "U", "NORAD_CAT_ID": 34613, "ELEMENT_SET_NO": 999, "REV_AT_EPOCH": 86493, "BSTAR": 0.0010455212, "MEAN_MOTION_DOT": 2.659e-05, "MEAN_MOTION_DDOT": 0}, "tle": {"line1": "1 34613U 93036WJ  25348.85639645  .00002659  00000+0  10455-2 0  9994", "line2": "2 34613  73.9633 274.7091 0110254 105.9603 312.4299 14.26448006864932"}}, "geometry": {"type": "Point", "coordinates": [134.71944589435597, -66.36784837069096]}}, {"type": "Feature", "properties": {"norad_id": 34614, "name": "COSMOS 2251 DEB", "group": "cosmos-2251-debris", "lat": 71.7900325357997, "lon": 40.532750699282275, "alt_km": 870.1378363485146, "timestamp": "2025-12-15T10:55:21.539508+00:00", "meta": {"OBJECT_NAME": "COSMOS 2251 DEB", "OBJECT_ID": "1993-036WK", "EPOCH": "2025-12-14T00:55:57.416736", "MEAN_MOTION": 14.17553969, "ECCENTRICITY": 0.01974833, "INCLINATION": 73.8797, "RA_OF_ASC_NODE": 341.5466, "ARG_OF_PERICENTER": 335.2307, "MEAN_ANOMALY": 79.3744, "EPHEMERIS_TYPE": 0, "CLASSIFICATION_TYPE": "U", "NORAD_CAT_ID": 34614, "ELEMENT_SET_NO": 999, "REV_AT_EPOCH": 84785, "BSTAR": 0.006469136, "MEAN_MOTION_DOT": 0.00015925, "MEAN_MOTION_DDOT": 0}, "tle": {"line1": "1 34614U 93036WK  25348.03885899  .00015925  00000+0  64691-2 0  9990", "line2": "2 34614  73.8797 341.5466 0197483 335.2307  79.3744 14.17553969847851"}}, "geometry": {"type": "Point", "coordinates": [40.532750699282275, 71.7900325357997]}}, {"type": "Feature", "properties": {"norad_id": 34615, "name": "COSMOS 2251 DEB", "group": "cosmos-2251-debris", "lat": 48.79402578707801, "lon": -51.09231085874375, "alt_km": 1299.442890188824, "timestamp": "2025-12-15T10:55:21.539518+00:00", "meta": {"OBJECT_NAME": "COSMOS 2251 DEB", "OBJECT_ID": "1993-036WL", "EPOCH": "2025-12-14T20:36:14.565888", "MEAN_MOTION": 13.52203212, "ECCENTRICITY": 0.0401035, "INCLINATION": 74.0048, "RA_OF_ASC_NODE": 290.7428, "ARG_OF_PERICENTER": 197.5295, "MEAN_ANOMALY": 193.5798, "EPHEMERIS_TYPE": 0, "CLASSIFICATION_TYPE": "U", "NORAD_CAT_ID": 34615, "ELEMENT_SET_NO": 999, "REV_AT_EPOCH": 82844, "BSTAR": 0.00010136303, "MEAN_MOTION_DOT": 8.9e-07, "MEAN_MOTION_DDOT": 0}, "tle": {"line1": "1 34615U 93036WL  25348.85850192  .00000089  00000+0  10136-3 0  9990", "line2": "2 34615  74.0048 290.7428 0401035 197.5295 193.5798 13.52203212828446"}}, "geometry": {"type": "Point", "coordinates": [-51.09231085874375, 48.79402578707801]}}, {"type": "Feature", "properties": {"norad_id": 34619, "name": "COSMOS 2251 DEB", "group": "cosmos-2251-debris", "lat": -17.865118237445486, "lon": -170.5697408127539, "alt_km": 641.8119659466647, "timestamp": "2025-12-15T10:55:21.539528+00:00", "meta": {"OBJECT_NAME": "COSMOS 2251 DEB", "OBJECT_ID": "1993-036WQ", "EPOCH": "2025-12-14T20:15:10.951200", "MEAN_MOTION": 14.6465083, "ECCENTRICITY": 0.00947336, "INCLINATION": 74.0432, "RA_OF_ASC_NODE": 195.8959, "ARG_OF_PERICENTER": 290.2632, "MEAN_ANOMALY": 68.8371, "EPHEMERIS_TYPE": 0, "CLASSIFICATION_TYPE": "U", "NORAD_CAT_ID": 34619, "ELEMENT_SET_NO": 999, "REV_AT_EPOCH": 89329, "BSTAR": 0.00024085496, "MEAN_MOTION_DOT": 1.333e-05, "MEAN_MOTION_DDOT": 0}, "tle": {"line1": "1 34619U 93036WQ  25348.84387675  .00001333  00000+0  24085-3 0  9995", "line2": "2 34619  74.0432 195.8959 0094733 290.2632  68.8371 14.64650830893292"}}, "geometry": {"type": "Point", "coordinates": [-170.5697408127539, -17.865118237445486]}}, {"type": "Feature", "properties": {"norad_id": 34620, "name": "COSMOS 2251 DEB", "group": "cosmos-2251-debris", "lat": 62.243453874003144, "lon": -112.64208482162456, "alt_km": 779.1167288335128, "timestamp": "2025-12-15T10:55:21.539539+00:00", "meta": {"OBJECT_NAME": "COSMOS 2251 DEB", "OBJECT_ID": "1993-036WR", "EPOCH": "2025-12-14T16:23:09.096288", "MEAN_MOTION": 14.49141443, "ECCENTRICITY": 0.00804859, "INCLINATION": 74.0516, "RA_OF_ASC_NODE": 215.8914, "ARG_OF_PERICENTER": 251.878, "MEAN_ANOMALY": 107.3603, "EPHEMERIS_TYPE": 0, "CLASSIFICATION_TYPE": "U", "NORAD_CAT_ID": 34620, "ELEMENT_SET_NO": 999, "REV_AT_EPOCH": 86855, "BSTAR": 0.001634528, "MEAN_MOTION_DOT": 6.455e-05, "MEAN_MOTION_DDOT": 0}, "tle": {"line1": "1 34620U 93036WR  25348.68274417  .00006455  00000+0  16345-2 0  9997", "line2": "2 34620  74.0516 215.8914 0080485 251.8780 107.3603 14.49141443868553"}}, "geometry": {"type": "Point", "coordinates": [-112.64208482162456, 62.243453874003144]}}, {"type": "Feature", "properties": {"norad_id": 34622, "name": "COSMOS 2251 DEB", "group": "cosmos-2251-debris", "lat": 18.426994995952818, "lon": 116.66937390699286, "alt_km": 872.7195733844101, "timestamp": "2025-12-15T10:55:21.539549+00:00", "meta": {"OBJECT_NAME": "COSMOS 2251 DEB", "OBJECT_ID": "1993-036WT", "EPOCH": "2025-12-14T14:43:38.477856", "MEAN_MOTION": 14.22054977, "ECCENTRICITY": 0.01044702, "INCLINATION": 74.042, "RA_OF_ASC_NODE": 303.6491, "ARG_OF_PERICENTER": 25.6613, "MEAN_ANOMALY": 148.0968, "EPHEMERIS_TYPE": 0, "CLASSIFICATION_TYPE": "U", "NORAD_CAT_ID": 34622, "ELEMENT_SET_NO": 999, "REV_AT_EPOCH": 86486, "BSTAR": 0.00099843213, "MEAN_MOTION_DOT": 2.31e-05, "MEAN_MOTION_DDOT": 0}, "tle": {"line1": "1 34622U 93036WT  25348.61363979  .00002310  00000+0  99843-3 0  9995", "line2": "2 34622  74.0420 303.6491 0104470  25.6613 148.0968 14.22054977864860"}}, "geometry": {"type": "Point", "coordinates": [116.66937390699286, 18.426994995952818]}}, {"type": "Feature", "properties": {"norad_id": 34626, "name": "COSMOS 2251 DEB", "group": "cosmos-2251-debris", "lat": 60.76585540751678, "lon": 107.88024558469107, "alt_km": 640.820925429005, "timestamp": "2025-12-15T10:55:21.539560+00:00", "meta": {"OBJECT_NAME": "COSMOS 2251 DEB", "OBJECT_ID": "1993-036WX", "EPOCH": "2025-12-14T08:59:27.929184", "MEAN_MOTION": 14.7222473, "ECCENTRICITY": 0.00266303, "INCLINATION": 74.0481, "RA_OF_ASC_NODE": 320.7153, "ARG_OF_PERICENTER": 48.4691, "MEAN_ANOMALY": 101.8121, "EPHEMERIS_TYPE": 0, "CLASSIFICATION_TYPE": "U", "NORAD_CAT_ID": 34626, "ELEMENT_SET_NO": 999, "REV_AT_EPOCH": 89168, "BSTAR": 0.001180695, "MEAN_MOTION_DOT": 7.468e-05, "MEAN_MOTION_DDOT": 0}, "tle": {"line1": "1 34626U 93036WX  25348.37462881  .00007468  00000+0  11807-2 0  9996", "line2": "2 34626  74.0481 320.7153 0026630  48.4691 101.8121 14.72224730891685"}}, "geometry": {"type": "Point", "coordinates": [107.88024558469107, 60.76585540751678]}}, {"type": "Feature", "properties": {"norad_id": 34634, "name": "COSMOS 2251 DEB", "group": "cosmos-2251-debris", "lat": 57.216294029371674, "lon": -176.52343736192142, "alt_km": 671.5752953547981, "timestamp": "2025-12-15T10:55:21.539573+00:00", "meta": {"OBJECT_NAME": "COSMOS 2251 DEB", "OBJECT_ID": "1993-036XF", "EPOCH": "2025-12-14T13:37:23.816064", "MEAN_MOTION": 14.55665206, "ECCENTRICITY": 0.00440396, "INCLINATION": 74.0531, "RA_OF_ASC_NODE": 31.5124, "ARG_OF_PERICENTER": 138.3842, "MEAN_ANOMALY": 11.9306, "EPHEMERIS_TYPE": 0, "CLASSIFICATION_TYPE": "U", "NORAD_CAT_ID": 34634, "ELEMENT_SET_NO": 999, "REV_AT_EPOCH": 88808, "BSTAR": 0.00033463827, "MEAN_MOTION_DOT": 1.452e-05, "MEAN_MOTION_DDOT": 0}, "tle": {"line1": "1 34634U 93036XF  25348.56763676  .00001452  00000+0  33464-3 0  9993", "line2": "2 34634  74.0531  31.5124 0044039 138.3842  11.9306 14.55665206888089"}}, "geometry": {"type": "Point", "coordinates": [-176.52343736192142, 57.216294029371674]}}]}